{
  "type": "FeatureCollection",
  "features": [
    {
      "type": "Feature",
      "properties": {
        "norad_id": 36036,
        "name": "SMOS",
        "group": "resource",
        "lat": 35.925308111829615,
        "lon": 11.948745561625211,
        "alt_km": 756.4564636399718,
        "timestamp": "2025-12-26T22:28:05.435976+00:00",
        "meta_object_name": "SMOS",
        "meta_object_id": "2009-059A",
        "meta_epoch": "2025-12-26T11:47:46.851072",
        "meta_mean_motion": 14.39753392,
        "meta_eccentricity": 0.000104,
        "meta_inclination": 98.4382,
        "meta_ra_of_asc_node": 185.3364,
        "meta_arg_of_pericenter": 83.5124,
        "meta_mean_anomaly": 276.6183,
        "meta_ephemeris_type": 0,
        "meta_classification_type": "U",
        "meta_norad_cat_id": 36036,
        "meta_element_set_no": 999,
        "meta_rev_at_epoch": 84860,
        "meta_bstar": 0.00014539,
        "meta_mean_motion_dot": 4.12e-06,
        "meta_mean_motion_ddot": 0,
        "tle_line1": "1 36036U 09059A   25360.49151448  .00000412  00000+0  14539-3 0  9994",
        "tle_line2": "2 36036  98.4382 185.3364 0001040  83.5124 276.6183 14.39753392848607"
      },
      "geometry": {
        "type": "Point",
        "coordinates": [
          11.948745561625211,
          35.925308111829615
        ]
      }
    },
    {
      "type": "Feature",
      "properties": {
        "norad_id": 36110,
        "name": "YAOGAN-7",
        "group": "resource",
        "lat": 71.30532276639929,
        "lon": 87.29728513471623,
        "alt_km": 639.2372404256976,
        "timestamp": "2025-12-26T22:28:05.435986+00:00",
        "meta_object_name": "YAOGAN-7",
        "meta_object_id": "2009-069A",
        "meta_epoch": "2025-12-26T15:29:02.012352",
        "meta_mean_motion": 14.77752551,
        "meta_eccentricity": 0.0023522,
        "meta_inclination": 98.0293,
        "meta_ra_of_asc_node": 242.3521,
        "meta_arg_of_pericenter": 233.9323,
        "meta_mean_anomaly": 125.9709,
        "meta_ephemeris_type": 0,
        "meta_classification_type": "U",
        "meta_norad_cat_id": 36110,
        "meta_element_set_no": 999,
        "meta_rev_at_epoch": 86414,
        "meta_bstar": 0.00010378,
        "meta_mean_motion_dot": 6.94e-06,
        "meta_mean_motion_ddot": 0,
        "tle_line1": "1 36110U 09069A   25360.64516218  .00000694  00000+0  10378-3 0  9994",
        "tle_line2": "2 36110  98.0293 242.3521 0023522 233.9323 125.9709 14.77752551864142"
      },
      "geometry": {
        "type": "Point",
        "coordinates": [
          87.29728513471623,
          71.30532276639929
        ]
      }
    },
    {
      "type": "Feature",
      "properties": {
        "norad_id": 36605,
        "name": "TANDEM-X",
        "group": "resource",
        "lat": -54.032714921135906,
        "lon": 16.491146899263974,
        "alt_km": 516.4406085551336,
        "timestamp": "2025-12-26T22:28:05.435997+00:00",
        "meta_object_name": "TANDEM-X",
        "meta_object_id": "2010-030A",
        "meta_epoch": "2025-12-26T13:13:25.252608",
        "meta_mean_motion": 15.1915819,
        "meta_eccentricity": 0.0001776,
        "meta_inclination": 97.4455,
        "meta_ra_of_asc_node": 5.7293,
        "meta_arg_of_pericenter": 92.0278,
        "meta_mean_anomaly": 268.116,
        "meta_ephemeris_type": 0,
        "meta_classification_type": "U",
        "meta_norad_cat_id": 36605,
        "meta_element_set_no": 999,
        "meta_rev_at_epoch": 86043,
        "meta_bstar": 6.7415e-05,
        "meta_mean_motion_dot": 1.349e-05,
        "meta_mean_motion_ddot": 0,
        "tle_line1": "1 36605U 10030A   25360.55098672  .00001349  00000+0  67415-4 0  9995",
        "tle_line2": "2 36605  97.4455   5.7293 0001776  92.0278 268.1160 15.19158190860436"
      },
      "geometry": {
        "type": "Point",
        "coordinates": [
          16.491146899263974,
          -54.032714921135906
        ]
      }
    },
    {
      "type": "Feature",
      "properties": {
        "norad_id": 36795,
        "name": "CARTOSAT-2B",
        "group": "resource",
        "lat": 80.74729002092486,
        "lon": -7.592128929204691,
        "alt_km": 620.2840331972302,
        "timestamp": "2025-12-26T22:28:05.436007+00:00",
        "meta_object_name": "CARTOSAT-2B",
        "meta_object_id": "2010-035A",
        "meta_epoch": "2025-12-26T17:12:51.124896",
        "meta_mean_motion": 14.78747393,
        "meta_eccentricity": 0.0012502,
        "meta_inclination": 97.7831,
        "meta_ra_of_asc_node": 49.2915,
        "meta_arg_of_pericenter": 35.1738,
        "meta_mean_anomaly": 325.0296,
        "meta_ephemeris_type": 0,
        "meta_classification_type": "U",
        "meta_norad_cat_id": 36795,
        "meta_element_set_no": 999,
        "meta_rev_at_epoch": 83436,
        "meta_bstar": 0.00017726,
        "meta_mean_motion_dot": 1.253e-05,
        "meta_mean_motion_ddot": 0,
        "tle_line1": "1 36795U 10035A   25360.71725839  .00001253  00000+0  17726-3 0  9993",
        "tle_line2": "2 36795  97.7831  49.2915 0012502  35.1738 325.0296 14.78747393834368"
      },
      "geometry": {
        "type": "Point",
        "coordinates": [
          -7.592128929204691,
          80.74729002092486
        ]
      }
    },
    {
      "type": "Feature",
      "properties": {
        "norad_id": 36834,
        "name": "YAOGAN-10",
        "group": "resource",
        "lat": 71.9311116815358,
        "lon": -134.1146436142093,
        "alt_km": 606.9064210417491,
        "timestamp": "2025-12-26T22:28:05.436017+00:00",
        "meta_object_name": "YAOGAN-10",
        "meta_object_id": "2010-038A",
        "meta_epoch": "2025-12-26T19:31:55.132320",
        "meta_mean_motion": 14.84658382,
        "meta_eccentricity": 0.0001332,
        "meta_inclination": 97.9134,
        "meta_ra_of_asc_node": 20.5283,
        "meta_arg_of_pericenter": 78.8449,
        "meta_mean_anomaly": 93.9235,
        "meta_ephemeris_type": 0,
        "meta_classification_type": "U",
        "meta_norad_cat_id": 36834,
        "meta_element_set_no": 999,
        "meta_rev_at_epoch": 83162,
        "meta_bstar": 0.00013964,
        "meta_mean_motion_dot": 1.127e-05,
        "meta_mean_motion_ddot": 0,
        "tle_line1": "1 36834U 10038A   25360.81383255  .00001127  00000+0  13964-3 0  9993",
        "tle_line2": "2 36834  97.9134  20.5283 0001332  78.8449  93.9235 14.84658382831628"
      },
      "geometry": {
        "type": "Point",
        "coordinates": [
          -134.1146436142093,
          71.9311116815358
        ]
      }
    },
    {
      "type": "Feature",
      "properties": {
        "norad_id": 37216,
        "name": "COSMO-SKYMED 4",
        "group": "resource",
        "lat": -79.39534417401534,
        "lon": -45.67011805195558,
        "alt_km": 630.8401124025049,
        "timestamp": "2025-12-26T22:28:05.436028+00:00",
        "meta_object_name": "COSMO-SKYMED 4",
        "meta_object_id": "2010-060A",
        "meta_epoch": "2025-12-26T18:02:42.768960",
        "meta_mean_motion": 14.82164667,
        "meta_eccentricity": 0.000142,
        "meta_inclination": 97.8809,
        "meta_ra_of_asc_node": 181.8642,
        "meta_arg_of_pericenter": 82.4035,
        "meta_mean_anomaly": 277.7339,
        "meta_ephemeris_type": 0,
        "meta_classification_type": "U",
        "meta_norad_cat_id": 37216,
        "meta_element_set_no": 999,
        "meta_rev_at_epoch": 81902,
        "meta_bstar": 0.00017354,
        "meta_mean_motion_dot": 1.33e-05,
        "meta_mean_motion_ddot": 0,
        "tle_line1": "1 37216U 10060A   25360.75188390  .00001330  00000+0  17354-3 0  9992",
        "tle_line2": "2 37216  97.8809 181.8642 0001420  82.4035 277.7339 14.82164667819024"
      },
      "geometry": {
        "type": "Point",
        "coordinates": [
          -45.67011805195558,
          -79.39534417401534
        ]
      }
    },
    {
      "type": "Feature",
      "properties": {
        "norad_id": 37387,
        "name": "RESOURCESAT-2",
        "group": "resource",
        "lat": 18.042162062836468,
        "lon": 61.535442280580895,
        "alt_km": 816.2618439531834,
        "timestamp": "2025-12-26T22:28:05.436038+00:00",
        "meta_object_name": "RESOURCESAT-2",
        "meta_object_id": "2011-015A",
        "meta_epoch": "2025-12-26T17:18:54.133632",
        "meta_mean_motion": 14.21595326,
        "meta_eccentricity": 0.0005753,
        "meta_inclination": 98.7858,
        "meta_ra_of_asc_node": 64.2093,
        "meta_arg_of_pericenter": 4.1964,
        "meta_mean_anomaly": 355.926,
        "meta_ephemeris_type": 0,
        "meta_classification_type": "U",
        "meta_norad_cat_id": 37387,
        "meta_element_set_no": 999,
        "meta_rev_at_epoch": 76167,
        "meta_bstar": 7.5964e-05,
        "meta_mean_motion_dot": 1.22e-06,
        "meta_mean_motion_ddot": 0,
        "tle_line1": "1 37387U 11015A   25360.72145988  .00000122  00000+0  75964-4 0  9995",
        "tle_line2": "2 37387  98.7858  64.2093 0005753   4.1964 355.9260 14.21595326761678"
      },
      "geometry": {
        "type": "Point",
        "coordinates": [
          61.535442280580895,
          18.042162062836468
        ]
      }
    }
  ]
}